INTELSAT 902 (IS-902)   
1 26900U 01039A   26118.76573149 -.00000284  00000+0  00000+0 0  9993
2 26900   5.9941  72.3716 0004313 320.4897  49.4432  1.00273112 90201
INTELSAT 904 (IS-904)   
1 27380U 02007A   26118.69810701 -.00000226  00000+0  00000+0 0  9998
2 27380   6.7992  69.7673 0007793 339.2104  27.5178  1.00273294 51274
DIRECTV 5 (TEMPO 1)     
1 27426U 02023A   26118.89642331 -.00000058  00000+0  00000+0 0  9994
2 27426   4.7543  75.9087 0003593 327.3099  26.2523  1.00272370 87620
INTELSAT 905 (IS-905)   
1 27438U 02027A   26118.53441811  .00000092  00000+0  00000+0 0  9999
2 27438   6.6316  70.3869 0003646 339.3874 221.9236  1.00271471 50864
GALAXY 3C (G-3C)        
1 27445U 02030A   26118.82821637 -.00000154  00000+0  00000+0 0  9991
2 27445   3.6043  78.6366 0001726  23.4354 318.0164  1.00271851 45998
INTELSAT 906 (IS-906)   
1 27513U 02041A   26118.93091678  .00000013  00000+0  00000+0 0  9998
2 27513   5.6791  73.5117 0004055 338.0599 204.6062  1.00271051 86532
GALAXY 13 (HORIZONS-1)  
1 27954U 03044A   26118.74597140  .00000129  00000+0  00000+0 0  9993
2 27954   1.2916  84.4373 0002195 317.1813 293.6634  1.00274348 46077
INTELSAT 10-02          
1 28358U 04022A   26118.84676310  .00000000  00000+0  00000+0 0  9995
2 28358   0.0153  65.6888 0001208  17.1536  77.7671  1.00270497 80061
DIRECTV 8               
1 28659U 05019A   26118.89460331 -.00000003  00000+0  00000+0 0  9999
2 28659   0.0082 217.8322 0003330 191.0602  10.9767  1.00273516 76575
GALAXY 28 (G-28)        
1 28702U 05022A   26118.91289005 -.00000202  00000+0  00000+0 0  9993
2 28702   3.1741  79.5194 0003248 321.1890 117.7007  1.00269969 51486
GALAXY 16 (G-16)        
1 29236U 06023A   26118.89867666 -.00000131  00000+0  00000+0 0  9991
2 29236   0.0176 221.1131 0002827 178.8705  41.4058  1.00272332 72476
DIRECTV 9S              
1 29494U 06043A   26118.89824332 -.00000115  00000+0  00000+0 0  9994
2 29494   2.2954  81.4663 0004377 332.5166  25.0461  1.00271909 50885
GALAXY 17 (G-17)        
1 31307U 07016B   26118.90145000 -.00000208  00000+0  00000+0 0  9994
2 31307   2.8494  80.4958 0004425 331.8342  44.0614  1.00272358 69312
INTELSAT 11 (IS-11)     
1 32253U 07044B   26118.84355642 -.00000229  00000+0  00000+0 0  9997
2 32253   3.4390  79.2460 0001142 228.8542 195.1498  0.99053195 67969
HORIZONS-2              
1 32388U 07063B   26118.90361668 -.00000255  00000+0  00000+0 0  9998
2 32388   2.4769  81.2060 0003567 325.7661  61.4117  1.00272071 67320
DIRECTV 11              
1 32729U 08013A   26118.61331955 -.00000129  00000+0  00000+0 0  9997
2 32729   0.0040 322.5237 0000904  12.3510   3.3090  1.00260827 45097
GALAXY 18 (G-18)        
1 32951U 08024A   26118.89382331  .00000021  00000+0  00000+0 0  9990
2 32951   0.0137 262.3725 0003352 145.0727   8.1915  1.00272581 45356
INTELSAT 25 (IS-25)     
1 33153U 08034A   26113.08239256 -.00000278  00000+0  00000+0 0  9994
2 33153   2.5670  80.9425 0002165 274.6153 207.9060  0.99965107 65143
GALAXY 19 (G-19)        
1 33376U 08045A   26118.89902332 -.00000143  00000+0  00000+0 0  9990
2 33376   0.0141 252.5307 0003492 163.6287  27.3482  1.00272030 64400
FM-5                    
1 35493U 09034A   26118.90119000 -.00000204  00000+0  00000+0 0  9993
2 35493   0.0121 271.6569 0000413 352.5136 190.9753  1.00270856 46147
INTELSAT 14 (IS-14)     
1 36097U 09064A   26118.90933670 -.00000277  00000+0  00000+0 0  9994
2 36097   0.0170  69.0135 0002600 333.3607  96.8633  1.00271633 60118
INTELSAT 15 (IS-15)     
1 36106U 09067A   26118.90770287 -.00000189  00000+0  00000+0 0  9993
2 36106   0.0132 273.6788 0002352 127.7366 227.3873  1.00271638 40733
DIRECTV 12              
1 36131U 09075A   26118.89789666 -.00000107  00000+0  00000+0 0  9999
2 36131   0.0304  67.5241 0000321   3.8179   6.0399  1.00272346 46059
INTELSAT 16 (IS-16)     
1 36397U 10006A   26118.90318334 -.00000248  00000+0  00000+0 0  9997
2 36397   0.0121 282.3894 0002297 146.8195  36.6035  1.00270315 59167
XM-5                    
1 37185U 10053A   26118.89546998 -.00000027  00000+0  00000+0 0  9997
2 37185   0.0630 271.0272 0003480 275.1039 237.9044  1.00270611 56983
INTELSAT 17 (IS-17)     
1 37238U 10065B   26118.94758378 -.00000006  00000+0  00000+0 0  9999
2 37238   0.0164 229.3024 0002708 185.5532 209.1989  1.00273723 52756
INTELSAT 28 (IS-28)     
1 37392U 11016A   26118.91202337 -.00000227  00000+0  00000+0 0  9998
2 37392   1.6805  83.1915 0004137 319.1741 111.1318  1.00272646 52791
INTELSAT 18 (IS-18)     
1 37834U 11056A   26118.81131630  .00000049  00000+0  00000+0 0  9990
2 37834   0.0208 259.1978 0001925 136.8576 292.7979  1.00271807 53314
INTELSAT 22 (IS-22)     
1 38098U 12011A   26118.91247664 -.00000062  00000+0  00000+0 0  9997
2 38098   0.0282 100.3340 0001752 303.3345 213.7927  1.00270795  6692
INTELSAT 19 (IS-19)     
1 38356U 12030A   26118.87986992  .00000000  00000+0  00000+0 0  9995
2 38356   0.0188 261.6285 0003313 141.4819 296.4929  1.00270920 49951
INTELSAT 20 (IS-20)     
1 38740U 12043A   26118.93178345 -.00000031  00000+0  00000+0 0  9993
2 38740   0.0199 294.5894 0001658  67.2679 258.9736  1.00285930 50251
INTELSAT 21 (IS-21)     
1 38749U 12045A   26118.90673669  .00000000  00000+0  00000+0 0  9995
2 38749   0.0191 256.5930 0001859 156.2180  72.4722  1.00266721 50037
INTELSAT 23 (IS-23)     
1 38867U 12057A   26118.90777669 -.00000288  00000+0  00000+0 0  9993
2 38867   0.0193 276.4286 0000405   7.4895 206.7598  1.00270892 49463
FM-6                    
1 39360U 13058A   26118.89520998 -.00000020  00000+0  00000+0 0  9997
2 39360   0.0165 266.5620 0000156 313.4643 202.7938  1.00270509 45574
INTELSAT 30 (IS-30)     
1 40271U 14062A   26118.89945666 -.00000154  00000+0  00000+0 0  9997
2 40271   0.0159 296.4516 0000942 105.4287  43.7476  1.00269824  6296
DIRECTV 14              
1 40333U 14078B   26118.44431383  .00000000  00000+0  00000+0 0  9999
2 40333   0.0126 271.3553 0000358 238.7754 127.0056  1.00267617 41547
DIRECTV 15              
1 40663U 15026A   26118.54135148 -.00000108  00000+0  00000+0 0  9990
2 40663   0.0435  82.7699 0000289 109.4911 116.2651  1.00271490 39961
SKY MEXICO-1            
1 40664U 15026B   26118.95109888 -.00000238  00000+0  00000+0 0  9992
2 40664   0.0136 265.8175 0001977 131.6093  83.0817  1.00273198 39968
INTELSAT 34 (IS-34)     
1 40874U 15039A   26118.90725669 -.00000289  00000+0  00000+0 0  9991
2 40874   0.0155 284.2005 0000276  62.0996 141.6972  1.00271288 39140
INTELSAT 31 (IS-31)     
1 41581U 16035A   26118.89945666 -.00000154  00000+0  00000+0 0  9994
2 41581   0.0112 236.6773 0002051  40.8345 168.1104  1.00270528 36185
INTELSAT 36 (IS-36)     
1 41747U 16053A   26118.64659969 -.00000029  00000+0  00000+0 0  9990
2 41747   0.0140 324.8366 0001440   2.9531 190.0935  1.00271148 35460
INTELSAT 32E (IS-32E)   
1 41945U 17007B   26118.90968337  .00000000  00000+0  00000+0 0  9999
2 41945   0.0182 257.9920 0000048  98.3558 144.8389  1.00267660 33731
INTELSAT 35E (IS-35E)   
1 42818U 17041A   26118.91141670 -.00000242  00000+0  00000+0 0  9990
2 42818   0.0105 214.3173 0002133 187.8823 108.2989  1.00271560 32327
INTELSAT 37E (IS-37E)   
1 42950U 17059A   26118.84338309  .00000000  00000+0  00000+0 0  9996
2 42950   0.0141 249.5468 0002502 177.3412  75.5390  1.00269675 31571
AZERSPACE 2 (IS-38)     
1 43632U 18074A   26118.92719009  .00000000  00000+0  00000+0 0  9991
2 43632   0.0193 253.9593 0001623 151.5007 190.3270  1.00270976 27957
HORIZONS-3E             
1 43633U 18074B   26118.73782470 -.00000035  00000+0  00000+0 0  9992
2 43633   0.0399  90.7525 0000680 248.2508 312.3085  1.00271734 27841
AT&T T-16               
1 44333U 19034A   26118.89824332 -.00000119  00000+0  00000+0 0  9991
2 44333   0.0445  75.3747 0000738 129.4392 234.5540  1.00269602 25133
INTELSAT 39 (IS-39)     
1 44476U 19049B   26118.91717041  .00000030  00000+0  00000+0 0  9997
2 44476   0.0200 262.1553 0000545 348.0020 358.8532  1.00271170 24632
GALAXY 30 (G-30)        
1 46114U 20056C   26118.67956027  .00000032  00000+0  00000+0 0  9992
2 46114   0.0187 260.5119 0002468 149.4143 286.3619  1.00272588 20790
GALAXY 33 (G-33)        
1 54026U 22128A   26118.82214172  .00000075  00000+0  00000+0 0  9997
2 54026   0.0146 278.1447 0001835 109.3989 352.2258  1.00274197 13247
GALAXY 34 (G-34)        
1 54027U 22128B   26118.82442931  .00000000  00000+0  00000+0 0  9992
2 54027   0.0227 246.6147 0001713 158.1372 339.8480  1.00272672 13411
GALAXY 31 (G-31)        
1 54243U 22153A   26118.89425664  .00000009  00000+0  00000+0 0  9990
2 54243   0.0105 239.6920 0001445 161.2329  16.8724  1.00273788  6634
GALAXY 32 (G-32)        
1 54244U 22153B   26118.90023667 -.00000178  00000+0  00000+0 0  9998
2 54244   0.0179 289.9330 0002958 104.5158  55.4996  1.00271720 12641
GALAXY 35 (G-35)        
1 54741U 22170A   26118.89980333 -.00000166  00000+0  00000+0 0  9996
2 54741   0.0143 248.6244 0002235 152.3829  46.6742  1.00271789 12392
GALAXY 36 (G-36)        
1 54742U 22170B   26118.90067000 -.00000189  00000+0  00000+0 0  9991
2 54742   0.0169 175.1939 0002907 251.6710  25.2404  1.00271354 12277
GALAXY 37 (G-37)        
1 57493U 23112A   26118.67921360  .00000000  00000+0  00000+0 0  9997
2 57493   0.0098 255.3802 0002246 144.0356 294.7514  1.00271088 10043
